CCSDS_OMM_VERS = 2.0
CREATION_DATE  = 
ORIGINATOR     = 

OBJECT_NAME    = 2025-274C
OBJECT_ID      = 2025-274C
CENTER_NAME    = EARTH
REF_FRAME      = TEME
TIME_SYSTEM    = UTC
MEAN_ELEMENT_THEORY = SGP/SGP4

EPOCH          = 2025-12-08T20:38:20.808384
MEAN_MOTION    = 14.91868760
ECCENTRICITY   = .0010428
INCLINATION    = 97.7388
RA_OF_ASC_NODE = 270.1229
ARG_OF_PERICENTER = 272.6406
MEAN_ANOMALY   = 87.3619

EPHEMERIS_TYPE = 0
CLASSIFICATION_TYPE = U
NORAD_CAT_ID   = 66652
ELEMENT_SET_NO = 999
REV_AT_EPOCH   = 182
BSTAR          = .30495E-3
MEAN_MOTION_DOT = .3028E-4
MEAN_MOTION_DDOT = 0

CCSDS_OMM_VERS = 2.0
CREATION_DATE  = 
ORIGINATOR     = 

OBJECT_NAME    = 2025-274D
OBJECT_ID      = 2025-274D
CENTER_NAME    = EARTH
REF_FRAME      = TEME
TIME_SYSTEM    = UTC
MEAN_ELEMENT_THEORY = SGP/SGP4

EPOCH          = 2025-12-08T20:38:15.768672
MEAN_MOTION    = 14.91872531
ECCENTRICITY   = .0011292
INCLINATION    = 97.7387
RA_OF_ASC_NODE = 270.1228
ARG_OF_PERICENTER = 268.5399
MEAN_ANOMALY   = 91.4526

EPHEMERIS_TYPE = 0
CLASSIFICATION_TYPE = U
NORAD_CAT_ID   = 66653
ELEMENT_SET_NO = 999
REV_AT_EPOCH   = 182
BSTAR          = .30202E-3
MEAN_MOTION_DOT = .2999E-4
MEAN_MOTION_DDOT = 0

CCSDS_OMM_VERS = 2.0
CREATION_DATE  = 
ORIGINATOR     = 

OBJECT_NAME    = JACK E
OBJECT_ID      = 2025-274E
CENTER_NAME    = EARTH
REF_FRAME      = TEME
TIME_SYSTEM    = UTC
MEAN_ELEMENT_THEORY = SGP/SGP4

EPOCH          = 2025-12-08T18:59:44.839680
MEAN_MOTION    = 14.92049180
ECCENTRICITY   = .00118714
INCLINATION    = 97.7389
RA_OF_ASC_NODE = 270.0592
ARG_OF_PERICENTER = 270.3927
MEAN_ANOMALY   = 89.5932

EPHEMERIS_TYPE = 0
CLASSIFICATION_TYPE = U
NORAD_CAT_ID   = 66654
ELEMENT_SET_NO = 999
REV_AT_EPOCH   = 181
BSTAR          = .47984468E-3
MEAN_MOTION_DOT = .4821E-4
MEAN_MOTION_DDOT = 0

CCSDS_OMM_VERS = 2.0
CREATION_DATE  = 
ORIGINATOR     = 

OBJECT_NAME    = 2025-274F
OBJECT_ID      = 2025-274F
CENTER_NAME    = EARTH
REF_FRAME      = TEME
TIME_SYSTEM    = UTC
MEAN_ELEMENT_THEORY = SGP/SGP4

EPOCH          = 2025-12-08T18:57:10.718496
MEAN_MOTION    = 14.92504145
ECCENTRICITY   = .00054909
INCLINATION    = 97.7329
RA_OF_ASC_NODE = 270.0601
ARG_OF_PERICENTER = 323.8556
MEAN_ANOMALY   = 36.2292

EPHEMERIS_TYPE = 0
CLASSIFICATION_TYPE = U
NORAD_CAT_ID   = 66655
ELEMENT_SET_NO = 999
REV_AT_EPOCH   = 181
BSTAR          = .1516128E-2
MEAN_MOTION_DOT = .15539E-3
MEAN_MOTION_DDOT = 0

CCSDS_OMM_VERS = 2.0
CREATION_DATE  = 
ORIGINATOR     = 

OBJECT_NAME    = 2025-274G
OBJECT_ID      = 2025-274G
CENTER_NAME    = EARTH
REF_FRAME      = TEME
TIME_SYSTEM    = UTC
MEAN_ELEMENT_THEORY = SGP/SGP4

EPOCH          = 2025-12-08T18:57:37.180224
MEAN_MOTION    = 14.92237325
ECCENTRICITY   = .00124924
INCLINATION    = 97.7387
RA_OF_ASC_NODE = 270.0607
ARG_OF_PERICENTER = 272.2172
MEAN_ANOMALY   = 87.7617

EPHEMERIS_TYPE = 0
CLASSIFICATION_TYPE = U
NORAD_CAT_ID   = 66656
ELEMENT_SET_NO = 999
REV_AT_EPOCH   = 181
BSTAR          = .50366905E-3
MEAN_MOTION_DOT = .5088E-4
MEAN_MOTION_DDOT = 0

CCSDS_OMM_VERS = 2.0
CREATION_DATE  = 
ORIGINATOR     = 

OBJECT_NAME    = SPIRONE
OBJECT_ID      = 2025-274H
CENTER_NAME    = EARTH
REF_FRAME      = TEME
TIME_SYSTEM    = UTC
MEAN_ELEMENT_THEORY = SGP/SGP4

EPOCH          = 2025-12-08T20:32:05.028864
MEAN_MOTION    = 14.92414576
ECCENTRICITY   = .0010976
INCLINATION    = 97.7386
RA_OF_ASC_NODE = 270.1280
ARG_OF_PERICENTER = 290.7866
MEAN_ANOMALY   = 69.2177

EPHEMERIS_TYPE = 0
CLASSIFICATION_TYPE = U
NORAD_CAT_ID   = 66657
ELEMENT_SET_NO = 999
REV_AT_EPOCH   = 182
BSTAR          = .36917E-3
MEAN_MOTION_DOT = .3729E-4
MEAN_MOTION_DDOT = 0

CCSDS_OMM_VERS = 2.0
CREATION_DATE  = 
ORIGINATOR     = 

OBJECT_NAME    = 2025-274J
OBJECT_ID      = 2025-274J
CENTER_NAME    = EARTH
REF_FRAME      = TEME
TIME_SYSTEM    = UTC
MEAN_ELEMENT_THEORY = SGP/SGP4

EPOCH          = 2025-12-08T18:53:29.669280
MEAN_MOTION    = 14.92588768
ECCENTRICITY   = .00115527
INCLINATION    = 97.7386
RA_OF_ASC_NODE = 270.0641
ARG_OF_PERICENTER = 294.1578
MEAN_ANOMALY   = 65.8433

EPHEMERIS_TYPE = 0
CLASSIFICATION_TYPE = U
NORAD_CAT_ID   = 66658
ELEMENT_SET_NO = 999
REV_AT_EPOCH   = 181
BSTAR          = .45753621E-3
MEAN_MOTION_DOT = .4657E-4
MEAN_MOTION_DDOT = 0

CCSDS_OMM_VERS = 2.0
CREATION_DATE  = 
ORIGINATOR     = 

OBJECT_NAME    = JACK K
OBJECT_ID      = 2025-274K
CENTER_NAME    = EARTH
REF_FRAME      = TEME
TIME_SYSTEM    = UTC
MEAN_ELEMENT_THEORY = SGP/SGP4

EPOCH          = 2025-12-08T20:27:50.866848
MEAN_MOTION    = 14.92772766
ECCENTRICITY   = .0012296
INCLINATION    = 97.7388
RA_OF_ASC_NODE = 270.1324
ARG_OF_PERICENTER = 295.0726
MEAN_ANOMALY   = 64.9216

EPHEMERIS_TYPE = 0
CLASSIFICATION_TYPE = U
NORAD_CAT_ID   = 66659
ELEMENT_SET_NO = 999
REV_AT_EPOCH   = 182
BSTAR          = .33526E-3
MEAN_MOTION_DOT = .3413E-4
MEAN_MOTION_DDOT = 0

CCSDS_OMM_VERS = 2.0
CREATION_DATE  = 
ORIGINATOR     = 

OBJECT_NAME    = K-HERO
OBJECT_ID      = 2025-274L
CENTER_NAME    = EARTH
REF_FRAME      = TEME
TIME_SYSTEM    = UTC
MEAN_ELEMENT_THEORY = SGP/SGP4

EPOCH          = 2025-12-08T20:26:05.496864
MEAN_MOTION    = 14.92924014
ECCENTRICITY   = .0012908
INCLINATION    = 97.7392
RA_OF_ASC_NODE = 270.1344
ARG_OF_PERICENTER = 295.6722
MEAN_ANOMALY   = 64.3164

EPHEMERIS_TYPE = 0
CLASSIFICATION_TYPE = U
NORAD_CAT_ID   = 66660
ELEMENT_SET_NO = 999
REV_AT_EPOCH   = 182
BSTAR          = .37508E-3
MEAN_MOTION_DOT = .3841E-4
MEAN_MOTION_DDOT = 0

CCSDS_OMM_VERS = 2.0
CREATION_DATE  = 
ORIGINATOR     = 

OBJECT_NAME    = SNUGLITE-III
OBJECT_ID      = 2025-274M
CENTER_NAME    = EARTH
REF_FRAME      = TEME
TIME_SYSTEM    = UTC
MEAN_ELEMENT_THEORY = SGP/SGP4

EPOCH          = 2025-12-08T18:47:48.328800
MEAN_MOTION    = 14.93068876
ECCENTRICITY   = .00135555
INCLINATION    = 97.7390
RA_OF_ASC_NODE = 270.0699
ARG_OF_PERICENTER = 296.9789
MEAN_ANOMALY   = 63.0046

EPHEMERIS_TYPE = 0
CLASSIFICATION_TYPE = U
NORAD_CAT_ID   = 66661
ELEMENT_SET_NO = 999
REV_AT_EPOCH   = 181
BSTAR          = .36148161E-3
MEAN_MOTION_DOT = .3714E-4
MEAN_MOTION_DDOT = 0

CCSDS_OMM_VERS = 2.0
CREATION_DATE  = 
ORIGINATOR     = 

OBJECT_NAME    = 2025-274N
OBJECT_ID      = 2025-274N
CENTER_NAME    = EARTH
REF_FRAME      = TEME
TIME_SYSTEM    = UTC
MEAN_ELEMENT_THEORY = SGP/SGP4

EPOCH          = 2025-12-09T02:49:36.319008
MEAN_MOTION    = 14.93115706
ECCENTRICITY   = .0013968
INCLINATION    = 97.7390
RA_OF_ASC_NODE = 270.4003
ARG_OF_PERICENTER = 294.9648
MEAN_ANOMALY   = 65.0120

EPHEMERIS_TYPE = 0
CLASSIFICATION_TYPE = U
NORAD_CAT_ID   = 66662
ELEMENT_SET_NO = 999
REV_AT_EPOCH   = 186
BSTAR          = .22902E-3
MEAN_MOTION_DOT = .2335E-4
MEAN_MOTION_DDOT = 0

CCSDS_OMM_VERS = 2.0
CREATION_DATE  = 
ORIGINATOR     = 

OBJECT_NAME    = KSLV-II R/B
OBJECT_ID      = 2025-274P
CENTER_NAME    = EARTH
REF_FRAME      = TEME
TIME_SYSTEM    = UTC
MEAN_ELEMENT_THEORY = SGP/SGP4

EPOCH          = 2025-12-06T19:27:04.446432
MEAN_MOTION    = 14.97226496
ECCENTRICITY   = .00484111
INCLINATION    = 97.7412
RA_OF_ASC_NODE = 268.2109
ARG_OF_PERICENTER = 339.2416
MEAN_ANOMALY   = 20.6839

EPHEMERIS_TYPE = 0
CLASSIFICATION_TYPE = U
NORAD_CAT_ID   = 66663
ELEMENT_SET_NO = 999
REV_AT_EPOCH   = 152
BSTAR          = .53388811E-3
MEAN_MOTION_DOT = .6269E-4
MEAN_MOTION_DDOT = 0

