2025-274C               
1 66652U 25274C   25342.85996306  .00003028  00000+0  30495-3 0  9993
2 66652  97.7388 270.1229 0010428 272.6406  87.3619 14.91868760  1829
2025-274D               
1 66653U 25274D   25342.85990473  .00002999  00000+0  30202-3 0  9995
2 66653  97.7387 270.1228 0011292 268.5399  91.4526 14.91872531  1827
JACK E                  
1 66654U 25274E   25342.79149120  .00004821  00000+0  47984-3 0  9995
2 66654  97.7389 270.0592 0011871 270.3927  89.5932 14.92049180  1819
2025-274F               
1 66655U 25274F   25342.78970739  .00015539  00000+0  15161-2 0  9992
2 66655  97.7329 270.0601 0005490 323.8556  36.2292 14.92504145  1812
2025-274G               
1 66656U 25274G   25342.79001366  .00005088  00000+0  50367-3 0  9991
2 66656  97.7387 270.0607 0012492 272.2172  87.7617 14.92237325  1819
SPIRONE                 
1 66657U 25274H   25342.85561376  .00003729  00000+0  36917-3 0  9996
2 66657  97.7386 270.1280 0010976 290.7866  69.2177 14.92414576  1829
2025-274J               
1 66658U 25274J   25342.78714895  .00004657  00000+0  45754-3 0  9995
2 66658  97.7386 270.0641 0011552 294.1578  65.8433 14.92588768  1810
JACK K                  
1 66659U 25274K   25342.85267207  .00003413  00000+0  33526-3 0  9997
2 66659  97.7388 270.1324 0012296 295.0726  64.9216 14.92772766  1826
K-HERO                  
1 66660U 25274L   25342.85145251  .00003841  00000+0  37508-3 0  9992
2 66660  97.7392 270.1344 0012908 295.6722  64.3164 14.92924014  1828
SNUGLITE-III            
1 66661U 25274M   25342.78319825  .00003714  00000+0  36148-3 0  9993
2 66661  97.7390 270.0699 0013555 296.9789  63.0046 14.93068876  1815
2025-274N               
1 66662U 25274N   25343.11778147  .00002335  00000+0  22902-3 0  9999
2 66662  97.7390 270.4003 0013968 294.9648  65.0120 14.93115706  1864
KSLV-II R/B             
1 66663U 25274P   25340.81046813  .00006269  00000+0  53389-3 0  9995
2 66663  97.7412 268.2109 0048411 339.2416  20.6839 14.97226496  1529
